[{"OBJECT_NAME":"STARLINK-33755","OBJECT_ID":"2025-076L","EPOCH":"2026-03-09T23:14:14.599392","MEAN_MOTION":15.27596845,"ECCENTRICITY":0.00012433,"INCLINATION":43.0016,"RA_OF_ASC_NODE":319.988,"ARG_OF_PERICENTER":266.7952,"MEAN_ANOMALY":93.2757,"EPHEMERIS_TYPE":0,"CLASSIFICATION_TYPE":"U","NORAD_CAT_ID":63579,"ELEMENT_SET_NO":999,"REV_AT_EPOCH":5187,"BSTAR":0.0010946971,"MEAN_MOTION_DOT":0.0003,"MEAN_MOTION_DDOT":0},{"OBJECT_NAME":"COSMOS 1758","OBJECT_ID":"1986-046A","EPOCH":"2026-03-09T22:23:33.220896","MEAN_MOTION":15.25706639,"ECCENTRICITY":0.00131526,"INCLINATION":82.4607,"RA_OF_ASC_NODE":143.3203,"ARG_OF_PERICENTER":337.3781,"MEAN_ANOMALY":22.6875,"EPHEMERIS_TYPE":0,"CLASSIFICATION_TYPE":"U","NORAD_CAT_ID":16791,"ELEMENT_SET_NO":999,"REV_AT_EPOCH":16610,"BSTAR":0.00027304427,"MEAN_MOTION_DOT":7.006e-5,"MEAN_MOTION_DDOT":0}]
